{
 "type": "FeatureCollection",
 "features": [
  {
   "type": "Feature",
   "properties": {
    "name": "NTA BK33 (Carroll Gardens-Columbia Street-Red Hook)",
    "source": "NYC 2010 census tracts (bmjq-373p) dissolved by tract->NTA equivalency (8ius-dhrr)",
    "nta": "BK33 Carroll Gardens-Columbia Street-Red Hook",
    "census_tracts_2010": [
     "45",
     "49",
     "67",
     "85",
     "65",
     "75",
     "63",
     "51",
     "59",
     "53",
     "47",
     "77"
    ],
    "approx_land_acres": 1013.1,
    "note": "The full official 2010 NTA; includes Carroll Gardens & Columbia St, not Red Hook in isolation."
   },
   "geometry": {
    "type": "Polygon",
    "coordinates": [
     [
      [
       -73.99868108236406,
       40.67173915760382
      ],
      [
       -73.99876941058922,
       40.67160204710525
      ],
      [
       -73.9989259130508,
       40.671414905508065
      ],
      [
       -73.99931101164928,
       40.670772639046874
      ],
      [
       -73.99962139973296,
       40.6701271678931
      ],
      [
       -73.99962813665822,
       40.67011307681162
      ],
      [
       -73.99991082007485,
       40.66949866842187
      ],
      [
       -74.0003033787489,
       40.66871689249724
      ],
      [
       -74.00105664113185,
       40.668945681717425
      ],
      [
       -74.00141527103162,
       40.66835941434718
      ],
      [
       -74.00221506816546,
       40.668578637441385
      ],
      [
       -74.00289483876949,
       40.66734846594956
      ],
      [
       -74.00319075274841,
       40.667263199815075
      ],
      [
       -74.00369462000529,
       40.66742761120855
      ],
      [
       -74.00363026351536,
       40.66756752335669
      ],
      [
       -74.00398842006281,
       40.66766564164112
      ],
      [
       -74.00440253439065,
       40.66777908632278
      ],
      [
       -74.00510111198021,
       40.66797532110049
      ],
      [
       -74.00510227346268,
       40.66797564772838
      ],
      [
       -74.00547017208592,
       40.66795127142831
      ],
      [
       -74.00552727453997,
       40.66789920471163
      ],
      [
       -74.00586366180684,
       40.66799376258587
      ],
      [
       -74.0059727524965,
       40.66788211051447
      ],
      [
       -74.00600224394503,
       40.66789014009983
      ],
      [
       -74.00625672030735,
       40.6673367404703
      ],
      [
       -74.00622652289191,
       40.66733405998674
      ],
      [
       -74.00677393930592,
       40.66618450518195
      ],
      [
       -74.0068367667257,
       40.666201243537444
      ],
      [
       -74.00687149182457,
       40.666128690981054
      ],
      [
       -74.00686089617074,
       40.66612376174248
      ],
      [
       -74.00685152653966,
       40.66611755769344
      ],
      [
       -74.00684364461944,
       40.66611025210944
      ],
      [
       -74.00683747054707,
       40.666102049031245
      ],
      [
       -74.00683317676008,
       40.666093177566076
      ],
      [
       -74.00683088318065,
       40.66608388548861
      ],
      [
       -74.00683065386623,
       40.666074432320976
      ],
      [
       -74.00683249522052,
       40.666065082084245
      ],
      [
       -74.00683635581484,
       40.66605609592469
      ],
      [
       -74.00684212782447,
       40.66604772481992
      ],
      [
       -74.00684965004025,
       40.66604020256948
      ],
      [
       -74.00685871237114,
       40.66603373926482
      ],
      [
       -74.00686906171192,
       40.6660285154217
      ],
      [
       -74.00688040901224,
       40.66602467693854
      ],
      [
       -74.00689243734965,
       40.66602233102151
      ],
      [
       -74.0069048107809,
       40.66602154319048
      ],
      [
       -74.00691718372457,
       40.66602233544904
      ],
      [
       -74.00692921061288,
       40.66602468566994
      ],
      [
       -74.00693999404723,
       40.66602960086951
      ],
      [
       -74.00694955535364,
       40.66603581181793
      ],
      [
       -74.00695762883261,
       40.66604314591921
      ],
      [
       -74.00696399012966,
       40.66605139936593
      ],
      [
       -74.00696846246997,
       40.666060342802936
      ],
      [
       -74.00697092157074,
       40.666069727700815
      ],
      [
       -74.00697129909507,
       40.666079293262264
      ],
      [
       -74.00696958455106,
       40.666088773669465
      ],
      [
       -74.00696582558336,
       40.666097905470714
      ],
      [
       -74.00696012664945,
       40.66610643490181
      ],
      [
       -74.00695264611672,
       40.666114124937636
      ],
      [
       -74.00694359186184,
       40.66612076187904
      ],
      [
       -74.006933215494,
       40.66612616129142
      ],
      [
       -74.00692180536298,
       40.666130173129915
      ],
      [
       -74.00690967854602,
       40.666132685909034
      ],
      [
       -74.0068971720367,
       40.666133629800896
      ],
      [
       -74.00688463337991,
       40.66613297857554
      ],
      [
       -74.00684990953975,
       40.66620481646161
      ],
      [
       -74.00689986821116,
       40.66621917196062
      ],
      [
       -74.00675322002554,
       40.666534813010976
      ],
      [
       -74.00630745183966,
       40.66749425113162
      ],
      [
       -74.006257516092,
       40.66759470124978
      ],
      [
       -74.00604596458894,
       40.66805324297803
      ],
      [
       -74.00531907552742,
       40.66955428536658
      ],
      [
       -74.00475388692328,
       40.670721359447796
      ],
      [
       -74.00543926529352,
       40.67092146823863
      ],
      [
       -74.00602851417166,
       40.669784745776724
      ],
      [
       -74.00661572118399,
       40.6686231562722
      ],
      [
       -74.00680345938899,
       40.668591375165896
      ],
      [
       -74.00754821618388,
       40.66705174573373
      ],
      [
       -74.00779653349625,
       40.667159770777396
      ],
      [
       -74.00708724287807,
       40.66859135803333
      ],
      [
       -74.00985411855626,
       40.668523628335585
      ],
      [
       -74.01154017543331,
       40.665085919756834
      ],
      [
       -74.0157487288266,
       40.664568336291815
      ],
      [
       -74.01690267361082,
       40.66484660284165
      ],
      [
       -74.01744446050996,
       40.66526799635196
      ],
      [
       -74.0178871914939,
       40.66585046628554
      ],
      [
       -74.01857605010876,
       40.67039241387013
      ],
      [
       -74.01876336878675,
       40.671075874494576
      ],
      [
       -74.01933946871777,
       40.671624948422796
      ],
      [
       -74.01888283363333,
       40.6716016662056
      ],
      [
       -74.01751037086694,
       40.67103453098431
      ],
      [
       -74.01668768368874,
       40.665437066767076
      ],
      [
       -74.01657536097838,
       40.665038537840054
      ],
      [
       -74.01648665554497,
       40.664930508953994
      ],
      [
       -74.01602551776011,
       40.664863048788284
      ],
      [
       -74.0159369853455,
       40.66547079172164
      ],
      [
       -74.01227967872792,
       40.66573241415904
      ],
      [
       -74.01087664028975,
       40.668601615763706
      ],
      [
       -74.01035683667315,
       40.66864283538869
      ],
      [
       -74.01033845947936,
       40.6690781954482
      ],
      [
       -74.01055980644766,
       40.66919052506985
      ],
      [
       -74.01091024340414,
       40.66919049236966
      ],
      [
       -74.01087343978188,
       40.66971011555857
      ],
      [
       -74.01154288031569,
       40.66978434275048
      ],
      [
       -74.01162173117001,
       40.67011434644752
      ],
      [
       -74.01151443463284,
       40.670407022879004
      ],
      [
       -74.01162527521356,
       40.670581028276025
      ],
      [
       -74.0140621982817,
       40.66970583843664
      ],
      [
       -74.01424926931875,
       40.6697286047373
      ],
      [
       -74.01424180477504,
       40.669808370538995
      ],
      [
       -74.0117535050969,
       40.67065775707593
      ],
      [
       -74.01177191196575,
       40.67070305391286
      ],
      [
       -74.01179735456277,
       40.67074633145567
      ],
      [
       -74.01182946198804,
       40.67078695878561
      ],
      [
       -74.0118677661764,
       40.670824343618776
      ],
      [
       -74.01191170872062,
       40.67085794094093
      ],
      [
       -74.01196290729479,
       40.67088844629345
      ],
      [
       -74.01201873922635,
       40.67091380529647
      ],
      [
       -74.01207831743132,
       40.670933615032126
      ],
      [
       -74.01214069529996,
       40.670947560752
      ],
      [
       -74.0122048817377,
       40.67095542087838
      ],
      [
       -74.01226985691291,
       40.670957070524985
      ],
      [
       -74.01233458846134,
       40.670952483481216
      ],
      [
       -74.01239804788985,
       40.670941732628734
      ],
      [
       -74.01245922691852,
       40.67092498878342
      ],
      [
       -74.01251715350163,
       40.670902517981155
      ],
      [
       -74.01257090727259,
       40.67087467725063
      ],
      [
       -74.01261963416783,
       40.67084190894061
      ],
      [
       -74.01309824698103,
       40.67105495991243
      ],
      [
       -74.01355198671443,
       40.67125693437729
      ],
      [
       -74.01359839287177,
       40.671226917313106
      ],
      [
       -74.01365024645956,
       40.67120261272297
      ],
      [
       -74.01370634525983,
       40.671184584102896
      ],
      [
       -74.01376281091312,
       40.67117359468632
      ],
      [
       -74.01382077477413,
       40.67116897108869
      ],
      [
       -74.01387900570525,
       40.67117081151403
      ],
      [
       -74.01393626689658,
       40.67117907687215
      ],
      [
       -74.01399134213443,
       40.671193591608954
      ],
      [
       -74.01427407257722,
       40.67137929867941
      ],
      [
       -74.01508006471087,
       40.67068567379825
      ],
      [
       -74.0151998057007,
       40.67075402766451
      ],
      [
       -74.0143692064823,
       40.671454796156276
      ],
      [
       -74.01412302856022,
       40.671669334137505
      ],
      [
       -74.01387273763245,
       40.671880761760626
      ],
      [
       -74.01423289452782,
       40.672130000513214
      ],
      [
       -74.01559644489554,
       40.6709704775175
      ],
      [
       -74.01568625497515,
       40.671038834929
      ],
      [
       -74.01428722178991,
       40.67224118300007
      ],
      [
       -74.01422923190441,
       40.67220720499047
      ],
      [
       -74.01297587792189,
       40.673327918721135
      ],
      [
       -74.01336378218144,
       40.673591536934566
      ],
      [
       -74.01395109365245,
       40.67311158819353
      ],
      [
       -74.01511918663962,
       40.6721569959693
      ],
      [
       -74.01632099922307,
       40.67290826956389
      ],
      [
       -74.01457946720956,
       40.674414017071776
      ],
      [
       -74.01496392184575,
       40.67467763029439
      ],
      [
       -74.0154395663873,
       40.67427288215883
      ],
      [
       -74.01670765236585,
       40.673193774421925
      ],
      [
       -74.01816839280801,
       40.67193924110386
      ],
      [
       -74.0188009477692,
       40.67225076484888
      ],
      [
       -74.01727138470127,
       40.673608645805714
      ],
      [
       -74.01729282519574,
       40.673628215024806
      ],
      [
       -74.01775247096367,
       40.67404772289265
      ],
      [
       -74.01779805190316,
       40.67401589897339
      ],
      [
       -74.01781515223438,
       40.67403035799538
      ],
      [
       -74.01789301471663,
       40.67396526455034
      ],
      [
       -74.0178797161499,
       40.67395658985109
      ],
      [
       -74.01794428080245,
       40.67388282049709
      ],
      [
       -74.01798111223526,
       40.67389963805479
      ],
      [
       -74.0180107732054,
       40.67391318105255
      ],
      [
       -74.01795760572415,
       40.67398694866529
      ],
      [
       -74.0179234101333,
       40.673975384193504
      ],
      [
       -74.01783604921188,
       40.67404047913194
      ],
      [
       -74.01785694945181,
       40.67405783059587
      ],
      [
       -74.01780187203205,
       40.674095441412575
      ],
      [
       -74.0181153639023,
       40.67434270168247
      ],
      [
       -74.01813640520828,
       40.674358645475365
      ],
      [
       -74.0181536139001,
       40.67437706242554
      ],
      [
       -74.0181664970957,
       40.67439742504826
      ],
      [
       -74.01817468579968,
       40.67441915013174
      ],
      [
       -74.01817794547215,
       40.674441615441026
      ],
      [
       -74.01817618274673,
       40.67446417753945
      ],
      [
       -74.01804519537194,
       40.67476791076828
      ],
      [
       -74.01802399440481,
       40.67485275836333
      ],
      [
       -74.01803004073724,
       40.67492410782776
      ],
      [
       -74.01803574975763,
       40.67495881684365
      ],
      [
       -74.01800916427283,
       40.6749935314212
      ],
      [
       -74.01801676669672,
       40.67500943950532
      ],
      [
       -74.01792370591394,
       40.67507598132654
      ],
      [
       -74.01798640472799,
       40.67512514362125
      ],
      [
       -74.01783447572687,
       40.675258223014445
      ],
      [
       -74.01814986189123,
       40.675467879415066
      ],
      [
       -74.01819544347494,
       40.675440393140065
      ],
      [
       -74.01822964241143,
       40.67546208190104
      ],
      [
       -74.01829802655334,
       40.67545917918156
      ],
      [
       -74.01841235821729,
       40.67536544943174
      ],
      [
       -74.0183195782651,
       40.67530281254545
      ],
      [
       -74.01826302409965,
       40.67535022318108
      ],
      [
       -74.0181707090551,
       40.675290905663445
      ],
      [
       -74.01838692796325,
       40.67509684652105
      ],
      [
       -74.01847522178701,
       40.67515319139717
      ],
      [
       -74.01842277826977,
       40.675208101334924
      ],
      [
       -74.01852163355454,
       40.67526871258786
      ],
      [
       -74.01875661352109,
       40.67505645403511
      ],
      [
       -74.01876748039157,
       40.675050365970144
      ],
      [
       -74.01877955344204,
       40.675045780630136
      ],
      [
       -74.01879247780126,
       40.67504283279499
      ],
      [
       -74.01880587357515,
       40.675041609112284
      ],
      [
       -74.01881934701309,
       40.67504214555053
      ],
      [
       -74.01883250208174,
       40.67504442634185
      ],
      [
       -74.01884495210564,
       40.675048384445496
      ],
      [
       -74.01885633113301,
       40.67505390351836
      ],
      [
       -74.0188663046924,
       40.675060821334704
      ],
      [
       -74.0188745796239,
       40.67506893455459
      ],
      [
       -74.01888091269623,
       40.67507800470073
      ],
      [
       -74.01888511775628,
       40.67508776516809
      ],
      [
       -74.01888707120082,
       40.6750979290605
      ],
      [
       -74.01888671560985,
       40.67510819762345
      ],
      [
       -74.01888406143448,
       40.675118269025724
      ],
      [
       -74.01841031333086,
       40.6755190609859
      ],
      [
       -74.01841814042452,
       40.6755381677055
      ],
      [
       -74.01842953733541,
       40.67555620342163
      ],
      [
       -74.0184442612652,
       40.675572783899284
      ],
      [
       -74.0184619985357,
       40.67558755590579
      ],
      [
       -74.0184823712713,
       40.675600204736135
      ],
      [
       -74.01853710727022,
       40.675768790499994
      ],
      [
       -74.0185348637046,
       40.675787338055336
      ],
      [
       -74.01852843521326,
       40.67580530956278
      ],
      [
       -74.01851801605162,
       40.675822161952226
      ],
      [
       -74.01850392106736,
       40.67583738597114
      ],
      [
       -74.0184865761866,
       40.67585052157342
      ],
      [
       -74.01846650554316,
       40.675861171821445
      ],
      [
       -74.01844431564008,
       40.675869014880945
      ],
      [
       -74.01842067702209,
       40.67587381374657
      ],
      [
       -74.0183963040124,
       40.675875423403795
      ],
      [
       -74.01801753445856,
       40.67588437755784
      ],
      [
       -74.0179741087094,
       40.67594882365621
      ],
      [
       -74.01793838683696,
       40.67601595591047
      ],
      [
       -74.01791065223304,
       40.676085241785735
      ],
      [
       -74.01789112493164,
       40.67615613166152
      ],
      [
       -74.01787995986277,
       40.676228063191694
      ],
      [
       -74.01787724562267,
       40.67630046576511
      ],
      [
       -74.01788300377014,
       40.676372765032234
      ],
      [
       -74.01789718865467,
       40.676444387461125
      ],
      [
       -74.01791968777765,
       40.67651476488723
      ],
      [
       -74.01797278645655,
       40.676512828695834
      ],
      [
       -74.0179768500939,
       40.6765679162062
      ],
      [
       -74.01910890308608,
       40.67654428188828
      ],
      [
       -74.01912142196919,
       40.67661558463831
      ],
      [
       -74.01976925613235,
       40.67661322491746
      ],
      [
       -74.01995197864677,
       40.67710301045017
      ],
      [
       -74.0190825738633,
       40.67713956404772
      ],
      [
       -74.01914183574374,
       40.67772313432796
      ],
      [
       -74.0191892731334,
       40.6777411827305
      ],
      [
       -74.01919098767968,
       40.67774327118004
      ],
      [
       -74.0192189273765,
       40.67777728854665
      ],
      [
       -74.01917743946899,
       40.677826949007155
      ],
      [
       -74.01908763812088,
       40.67783123639893
      ],
      [
       -74.0190825764446,
       40.6778314788135
      ],
      [
       -74.01906541502093,
       40.67785015211908
      ],
      [
       -74.01904108711268,
       40.67787662401794
      ],
      [
       -74.0190338738475,
       40.67787699846317
      ],
      [
       -74.01843040661606,
       40.677908321362466
      ],
      [
       -74.01842965849701,
       40.67792758482327
      ],
      [
       -74.01841103183176,
       40.67840712178119
      ],
      [
       -74.01859504220096,
       40.67839777362938
      ],
      [
       -74.0186253260616,
       40.67836958152584
      ],
      [
       -74.0186278707078,
       40.67836958111389
      ],
      [
       -74.01862981462033,
       40.678369580799156
      ],
      [
       -74.01864991332967,
       40.67838487583748
      ],
      [
       -74.01866235777157,
       40.67839434600328
      ],
      [
       -74.01895405840415,
       40.67838148630472
      ],
      [
       -74.01898322115356,
       40.67835244073796
      ],
      [
       -74.01898995247258,
       40.67835329318082
      ],
      [
       -74.01902137413651,
       40.67837720491493
      ],
      [
       -74.01947238897456,
       40.67835833705073
      ],
      [
       -74.01953856537543,
       40.67830195259375
      ],
      [
       -74.01966200306943,
       40.67838563895909
      ],
      [
       -74.01966312651504,
       40.67838820127078
      ],
      [
       -74.01955208101641,
       40.67848217760085
      ],
      [
       -74.01951841750095,
       40.67845912061598
      ],
      [
       -74.01942864377905,
       40.67840019839325
      ],
      [
       -74.01942574949804,
       40.67840028231071
      ],
      [
       -74.01936501470075,
       40.678402029978415
      ],
      [
       -74.01927942798388,
       40.67840449444375
      ],
      [
       -74.01927671763758,
       40.678406772436915
      ],
      [
       -74.0192748527343,
       40.6784083394684
      ],
      [
       -74.01924689963597,
       40.67843183337372
      ],
      [
       -74.01924241195326,
       40.678431834124325
      ],
      [
       -74.0192065036038,
       40.67840792437242
      ],
      [
       -74.01912079360895,
       40.678412561909646
      ],
      [
       -74.01906401917526,
       40.67841563457445
      ],
      [
       -74.01903261122402,
       40.67844297275554
      ],
      [
       -74.01903013778119,
       40.67844265854765
      ],
      [
       -74.01902587989507,
       40.6784421191425
      ],
      [
       -74.01899445934598,
       40.67841991686225
      ],
      [
       -74.01899029164363,
       40.67842001639152
      ],
      [
       -74.01898714122169,
       40.67842009213138
      ],
      [
       -74.01885085228989,
       40.67842335720715
      ],
      [
       -74.01884757078858,
       40.67842601741447
      ],
      [
       -74.0188243386943,
       40.67844485367624
      ],
      [
       -74.01881607949582,
       40.678451550104064
      ],
      [
       -74.01881159159171,
       40.678451550837906
      ],
      [
       -74.01878017201008,
       40.67843020222016
      ],
      [
       -74.01877503939659,
       40.678430320997286
      ],
      [
       -74.01871751760083,
       40.678431668747876
      ],
      [
       -74.01863319772814,
       40.678433642172855
      ],
      [
       -74.01863191295386,
       40.67843476230355
      ],
      [
       -74.0186017917925,
       40.678460980906024
      ],
      [
       -74.0185999818873,
       40.678460981198626
      ],
      [
       -74.01859505982537,
       40.678460981994206
      ],
      [
       -74.0185647616791,
       40.678439632466315
      ],
      [
       -74.0185105917507,
       40.67844051183524
      ],
      [
       -74.01840544611002,
       40.67844222006246
      ],
      [
       -74.01841786210217,
       40.678549551395044
      ],
      [
       -74.01827026139368,
       40.67855421845974
      ],
      [
       -74.01828314900898,
       40.678728289412284
      ],
      [
       -74.01834068826905,
       40.67872867226967
      ],
      [
       -74.01838313797539,
       40.67874482169829
      ],
      [
       -74.01857882788785,
       40.678983079472566
      ],
      [
       -74.01943955737208,
       40.678933293624425
      ],
      [
       -74.0194562003954,
       40.678932452374234
      ],
      [
       -74.0194727993366,
       40.678933700185425
      ],
      [
       -74.0194889048376,
       40.678937003277895
      ],
      [
       -74.01950408089836,
       40.67894227223196
      ],
      [
       -74.01951791667994,
       40.67894936440919
      ],
      [
       -74.01953003762645,
       40.678958087813655
      ],
      [
       -74.01954011560476,
       40.67896820628958
      ],
      [
       -74.01954787778766,
       40.678979445914415
      ],
      [
       -74.01955311403974,
       40.678991502414185
      ],
      [
       -74.01955568260608,
       40.67900404940077
      ],
      [
       -74.01955551395007,
       40.679016747207534
      ],
      [
       -74.01955261263596,
       40.679029252084796
      ],
      [
       -74.01928128102031,
       40.67964814059555
      ],
      [
       -74.0190683342972,
       40.67976074797666
      ],
      [
       -74.0189281398833,
       40.67984430561382
      ],
      [
       -74.01899105471423,
       40.67990499370397
      ],
      [
       -74.01772532572437,
       40.680661902673755
      ],
      [
       -74.01764735085476,
       40.68060189084181
      ],
      [
       -74.01757049494164,
       40.68065064812441
      ],
      [
       -74.01746928837116,
       40.680614731701105
      ],
      [
       -74.0168483693633,
       40.680985758987845
      ],
      [
       -74.01678833950196,
       40.68102196529258
      ],
      [
       -74.01520082279133,
       40.68197941942823
      ],
      [
       -74.01532059864759,
       40.68211072878072
      ],
      [
       -74.01508295187068,
       40.68225409881815
      ],
      [
       -74.01486782800738,
       40.68238321404747
      ],
      [
       -74.01282000398867,
       40.68362241649745
      ],
      [
       -74.01262428290782,
       40.68346869639188
      ],
      [
       -74.01212285893645,
       40.68296217785099
      ],
      [
       -74.01213481688791,
       40.682905928025285
      ],
      [
       -74.01410549647974,
       40.68171251937566
      ],
      [
       -74.01360863270283,
       40.68122194672833
      ],
      [
       -74.01387398777992,
       40.68100981331911
      ],
      [
       -74.01374206644405,
       40.68091770134309
      ],
      [
       -74.01301835422105,
       40.68041237401449
      ],
      [
       -74.01186281377171,
       40.68139847955079
      ],
      [
       -74.01060858082337,
       40.68246876026815
      ],
      [
       -74.00967108558883,
       40.6832687277152
      ],
      [
       -74.01008603947855,
       40.68365543104361
      ],
      [
       -74.0107731233938,
       40.68435861554109
      ],
      [
       -74.0117827220121,
       40.68375999549946
      ],
      [
       -74.0119325991106,
       40.68388774915516
      ],
      [
       -74.01092841268031,
       40.68449147254313
      ],
      [
       -74.00953293674748,
       40.68534164804189
      ],
      [
       -74.00860072436832,
       40.68590956465498
      ],
      [
       -74.00851294191318,
       40.68596254858389
      ],
      [
       -74.00842516151928,
       40.68601553244533
      ],
      [
       -74.00816414527888,
       40.68617471716172
      ],
      [
       -74.00798184065677,
       40.68627582209608
      ],
      [
       -74.0079344147698,
       40.686281942978795
      ],
      [
       -74.00788712164156,
       40.68624579479357
      ],
      [
       -74.00782695474197,
       40.6862406283319
      ],
      [
       -74.00776833635145,
       40.68624913667171
      ],
      [
       -74.007717074958,
       40.686264429018536
      ],
      [
       -74.00754474403935,
       40.68631824409119
      ],
      [
       -74.00701988682658,
       40.68652641769683
      ],
      [
       -74.00644146832336,
       40.6862884902323
      ],
      [
       -74.00588224183227,
       40.6861957683912
      ],
      [
       -74.00566680246703,
       40.68669807883398
      ],
      [
       -74.00562986330395,
       40.686784205541244
      ],
      [
       -74.00500373315074,
       40.687605985401035
      ],
      [
       -74.00459270521772,
       40.68821522298678
      ],
      [
       -74.0038203885371,
       40.68892964469951
      ],
      [
       -74.00340921558492,
       40.68961326065773
      ],
      [
       -74.00297565370539,
       40.69042657592089
      ],
      [
       -74.00196321926838,
       40.690136379460924
      ],
      [
       -74.00185304524622,
       40.690387987244584
      ],
      [
       -74.0009615685494,
       40.69012876835026
      ],
      [
       -74.00069905841879,
       40.69061185791666
      ],
      [
       -74.00132562333785,
       40.69146310033224
      ],
      [
       -74.0019693859211,
       40.69184320882024
      ],
      [
       -74.00181765040732,
       40.6922219624816
      ],
      [
       -74.00181122055704,
       40.69223801288127
      ],
      [
       -74.00179839892095,
       40.69227001601037
      ],
      [
       -74.0017436211104,
       40.69240674970565
      ],
      [
       -74.00169989372672,
       40.69238276713675
      ],
      [
       -74.00179431981029,
       40.69218477678905
      ],
      [
       -74.00077305722617,
       40.69189575732643
      ],
      [
       -74.00068438967641,
       40.69189781478948
      ],
      [
       -74.00062303530208,
       40.69204149066767
      ],
      [
       -74.00019040386195,
       40.691896447130354
      ],
      [
       -73.99991517300599,
       40.69176723001051
      ],
      [
       -73.99951274139042,
       40.69165145030904
      ],
      [
       -73.99936540129043,
       40.69161307827304
      ],
      [
       -73.99928819562555,
       40.69159395992726
      ],
      [
       -73.99920161806008,
       40.6915718343478
      ],
      [
       -73.99910057272561,
       40.691536973994026
      ],
      [
       -73.99893829000436,
       40.69149514503465
      ],
      [
       -73.9984527178269,
       40.69136998347773
      ],
      [
       -73.99803048644992,
       40.6912537228764
      ],
      [
       -73.99776924445038,
       40.691194697860944
      ],
      [
       -73.99623278034554,
       40.69075777458652
      ],
      [
       -73.99436092830202,
       40.69023948008453
      ],
      [
       -73.99236367043248,
       40.68969012377716
      ],
      [
       -73.99262286020634,
       40.68916054883613
      ],
      [
       -73.99268552762909,
       40.689033246531395
      ],
      [
       -73.99292888955874,
       40.68851942162269
      ],
      [
       -73.99300451644845,
       40.68836463604006
      ],
      [
       -73.9932683000288,
       40.687824451828625
      ],
      [
       -73.99333822964894,
       40.687678796934044
      ],
      [
       -73.99360423213145,
       40.687127230048326
      ],
      [
       -73.99378736930758,
       40.68675596693523
      ],
      [
       -73.99392929615887,
       40.68645287114662
      ],
      [
       -73.99409147686833,
       40.686113439826016
      ],
      [
       -73.99425367957093,
       40.68577799742958
      ],
      [
       -73.99440802432692,
       40.6854524959964
      ],
      [
       -73.99446139291214,
       40.68534190962084
      ],
      [
       -73.99457806788298,
       40.685100142427004
      ],
      [
       -73.99490113606073,
       40.68443023809102
      ],
      [
       -73.99262292635832,
       40.68354371192418
      ],
      [
       -73.99042374269752,
       40.68269393320199
      ],
      [
       -73.98827347888897,
       40.68186013466722
      ],
      [
       -73.98727571875041,
       40.68146773641312
      ],
      [
       -73.98722413947019,
       40.681447301875586
      ],
      [
       -73.98765051657759,
       40.680818638973655
      ],
      [
       -73.98808029285944,
       40.68017216677378
      ],
      [
       -73.98850509818276,
       40.67953715784824
      ],
      [
       -73.98893692950381,
       40.67890379812939
      ],
      [
       -73.98931739306182,
       40.67835827848245
      ],
      [
       -73.98931805517763,
       40.67825394028382
      ],
      [
       -73.98940594215917,
       40.67736592239731
      ],
      [
       -73.98985104580963,
       40.67681700768104
      ],
      [
       -73.99036651414416,
       40.676218320608136
      ],
      [
       -73.99069861947517,
       40.675807418966095
      ],
      [
       -73.99257514606231,
       40.676090439030425
      ],
      [
       -73.99280676653107,
       40.67611900214676
      ],
      [
       -73.99281621241921,
       40.67613585669775
      ],
      [
       -73.99312840444382,
       40.67616918748514
      ],
      [
       -73.99318302992762,
       40.67615284773345
      ],
      [
       -73.99333773316258,
       40.67616887443049
      ],
      [
       -73.99349341269355,
       40.676177886228686
      ],
      [
       -73.99364952023613,
       40.6761798513896
      ],
      [
       -73.99380550599801,
       40.67617476299215
      ],
      [
       -73.99396082061597,
       40.67616263895708
      ],
      [
       -73.99408317421872,
       40.67618402001103
      ],
      [
       -73.99420678541706,
       40.676155803403866
      ],
      [
       -73.99432903139297,
       40.67612432758036
      ],
      [
       -73.9944497639386,
       40.676089630701526
      ],
      [
       -73.99457939485798,
       40.67605000715488
      ],
      [
       -73.99470604527147,
       40.67600514317061
      ],
      [
       -73.99482935001053,
       40.67595516810631
      ],
      [
       -73.99494895355564,
       40.67590022605613
      ],
      [
       -73.99506451106141,
       40.67584047543534
      ],
      [
       -73.99520266318574,
       40.675729525976294
      ],
      [
       -73.99537151958572,
       40.675597406604695
      ],
      [
       -73.99562697633115,
       40.675325963839335
      ],
      [
       -73.99594950961252,
       40.674981696885176
      ],
      [
       -73.99666043540708,
       40.674142780841514
      ],
      [
       -73.99696673342599,
       40.67378415974922
      ],
      [
       -73.99717696106482,
       40.673528293372044
      ],
      [
       -73.99745115649252,
       40.67319456848821
      ],
      [
       -73.9980574165226,
       40.67246954510337
      ],
      [
       -73.99812844659408,
       40.67244074975725
      ],
      [
       -73.99847134058679,
       40.672059101492124
      ],
      [
       -73.99855090587793,
       40.67192594185851
      ],
      [
       -73.99861887970069,
       40.67183017256491
      ],
      [
       -73.99868108236406,
       40.67173915760382
      ]
     ]
    ]
   }
  }
 ]
}