{
 "type": "FeatureCollection",
 "features": [
  {
   "type": "Feature",
   "properties": {
    "name": "Red Hook (core, tracts 85/59/53)",
    "source": "NYC 2010 census tracts (bmjq-373p) dissolved by tract->NTA equivalency (8ius-dhrr)",
    "nta": "BK33 Carroll Gardens-Columbia Street-Red Hook",
    "census_tracts_2010": [
     "85",
     "59",
     "53"
    ],
    "approx_land_acres": 546.4,
    "note": "Only the three sub-10ft tracts (Red Hook Houses + waterfront)."
   },
   "geometry": {
    "type": "Polygon",
    "coordinates": [
     [
      [
       -74.00501066696373,
       40.68534193382046
      ],
      [
       -74.0051788808787,
       40.68499519693744
      ],
      [
       -74.00549809719912,
       40.68432595791879
      ],
      [
       -74.00581925424568,
       40.68365655485647
      ],
      [
       -74.00596041050298,
       40.68336287126438
      ],
      [
       -74.00579765086746,
       40.68311604777201
      ],
      [
       -74.00567492280948,
       40.68292992754408
      ],
      [
       -74.00562947282175,
       40.68286017798418
      ],
      [
       -74.00503641544341,
       40.681910288055875
      ],
      [
       -74.00456896575126,
       40.681149975878505
      ],
      [
       -74.0044496990314,
       40.680961269712704
      ],
      [
       -74.00440464539298,
       40.68090217489761
      ],
      [
       -74.00426243858917,
       40.680715644419315
      ],
      [
       -74.00411941786727,
       40.68052804596894
      ],
      [
       -74.00404615162317,
       40.68043194314825
      ],
      [
       -74.00395624788308,
       40.68031401652286
      ],
      [
       -74.00390729522138,
       40.680249804175084
      ],
      [
       -74.00376589628728,
       40.68006943454068
      ],
      [
       -74.00371762989899,
       40.68002103200828
      ],
      [
       -74.00361908487974,
       40.67990288090537
      ],
      [
       -74.00352487664135,
       40.67978992813459
      ],
      [
       -74.00346328026981,
       40.679716873535114
      ],
      [
       -74.00339091725144,
       40.67963476635964
      ],
      [
       -74.00334818916309,
       40.67958357199281
      ],
      [
       -74.00329805092159,
       40.67952023022344
      ],
      [
       -74.00313234723393,
       40.679323559208164
      ],
      [
       -74.00296723521349,
       40.679163119480485
      ],
      [
       -74.00272240045065,
       40.67886450291828
      ],
      [
       -74.002553652708,
       40.67865868444924
      ],
      [
       -74.00239463341849,
       40.67846887581204
      ],
      [
       -74.0020166330745,
       40.677977832571884
      ],
      [
       -74.00196107943468,
       40.67789674911852
      ],
      [
       -74.00190852331725,
       40.67782004124399
      ],
      [
       -74.0018348102819,
       40.677712453301716
      ],
      [
       -74.00153194421691,
       40.67727039766703
      ],
      [
       -74.00142907851482,
       40.67709551898288
      ],
      [
       -74.00133945408305,
       40.67694315041486
      ],
      [
       -74.00102823028617,
       40.676414040236246
      ],
      [
       -74.0009418905698,
       40.67620480302073
      ],
      [
       -74.00091726200782,
       40.67614511911723
      ],
      [
       -74.0008945950029,
       40.67609018376659
      ],
      [
       -74.00086757636213,
       40.67602470458298
      ],
      [
       -74.00074802031111,
       40.6757349583132
      ],
      [
       -74.00067409156921,
       40.67555578918172
      ],
      [
       -74.00083254989124,
       40.675612260241394
      ],
      [
       -74.00090355269108,
       40.67563696921126
      ],
      [
       -74.00102399932594,
       40.67566995006053
      ],
      [
       -74.00096041051934,
       40.67557203130886
      ],
      [
       -74.00077979381057,
       40.67529390075173
      ],
      [
       -74.00045011468973,
       40.674769425525966
      ],
      [
       -73.99997076886413,
       40.67396793666725
      ],
      [
       -73.99994759134415,
       40.673931971794296
      ],
      [
       -73.99989721086442,
       40.67385429415208
      ],
      [
       -73.9993453420546,
       40.673006549258
      ],
      [
       -73.99915327986014,
       40.67269276792084
      ],
      [
       -73.99903998983514,
       40.672507679122226
      ],
      [
       -73.998931364029,
       40.67233163759107
      ],
      [
       -73.99884187872924,
       40.672188035062305
      ],
      [
       -73.9986691697513,
       40.67191087616978
      ],
      [
       -73.99861887970069,
       40.67183017256491
      ],
      [
       -73.99868108236406,
       40.67173915760382
      ],
      [
       -73.99876941058922,
       40.67160204710525
      ],
      [
       -73.9989259130508,
       40.671414905508065
      ],
      [
       -73.99931101164928,
       40.670772639046874
      ],
      [
       -73.99962139973296,
       40.6701271678931
      ],
      [
       -73.99962813665822,
       40.67011307681162
      ],
      [
       -73.99991082007485,
       40.66949866842187
      ],
      [
       -74.0003033787489,
       40.66871689249724
      ],
      [
       -74.00105664113185,
       40.668945681717425
      ],
      [
       -74.00141527103162,
       40.66835941434718
      ],
      [
       -74.00221506816546,
       40.668578637441385
      ],
      [
       -74.00289483876949,
       40.66734846594956
      ],
      [
       -74.00319075274841,
       40.667263199815075
      ],
      [
       -74.00369462000529,
       40.66742761120855
      ],
      [
       -74.00363026351536,
       40.66756752335669
      ],
      [
       -74.00398842006281,
       40.66766564164112
      ],
      [
       -74.00440253439065,
       40.66777908632278
      ],
      [
       -74.00510111198021,
       40.66797532110049
      ],
      [
       -74.00510227346268,
       40.66797564772838
      ],
      [
       -74.00547017208592,
       40.66795127142831
      ],
      [
       -74.00552727453997,
       40.66789920471163
      ],
      [
       -74.00586366180684,
       40.66799376258587
      ],
      [
       -74.0059727524965,
       40.66788211051447
      ],
      [
       -74.00600224394503,
       40.66789014009983
      ],
      [
       -74.00625672030735,
       40.6673367404703
      ],
      [
       -74.00622652289191,
       40.66733405998674
      ],
      [
       -74.00677393930592,
       40.66618450518195
      ],
      [
       -74.0068367667257,
       40.666201243537444
      ],
      [
       -74.00687149182457,
       40.666128690981054
      ],
      [
       -74.00686089617074,
       40.66612376174248
      ],
      [
       -74.00685152653966,
       40.66611755769344
      ],
      [
       -74.00684364461944,
       40.66611025210944
      ],
      [
       -74.00683747054707,
       40.666102049031245
      ],
      [
       -74.00683317676008,
       40.666093177566076
      ],
      [
       -74.00683088318065,
       40.66608388548861
      ],
      [
       -74.00683065386623,
       40.666074432320976
      ],
      [
       -74.00683249522052,
       40.666065082084245
      ],
      [
       -74.00683635581484,
       40.66605609592469
      ],
      [
       -74.00684212782447,
       40.66604772481992
      ],
      [
       -74.00684965004025,
       40.66604020256948
      ],
      [
       -74.00685871237114,
       40.66603373926482
      ],
      [
       -74.00686906171192,
       40.6660285154217
      ],
      [
       -74.00688040901224,
       40.66602467693854
      ],
      [
       -74.00689243734965,
       40.66602233102151
      ],
      [
       -74.0069048107809,
       40.66602154319048
      ],
      [
       -74.00691718372457,
       40.66602233544904
      ],
      [
       -74.00692921061288,
       40.66602468566994
      ],
      [
       -74.00693999404723,
       40.66602960086951
      ],
      [
       -74.00694955535364,
       40.66603581181793
      ],
      [
       -74.00695762883261,
       40.66604314591921
      ],
      [
       -74.00696399012966,
       40.66605139936593
      ],
      [
       -74.00696846246997,
       40.666060342802936
      ],
      [
       -74.00697092157074,
       40.666069727700815
      ],
      [
       -74.00697129909507,
       40.666079293262264
      ],
      [
       -74.00696958455106,
       40.666088773669465
      ],
      [
       -74.00696582558336,
       40.666097905470714
      ],
      [
       -74.00696012664945,
       40.66610643490181
      ],
      [
       -74.00695264611672,
       40.666114124937636
      ],
      [
       -74.00694359186184,
       40.66612076187904
      ],
      [
       -74.006933215494,
       40.66612616129142
      ],
      [
       -74.00692180536298,
       40.666130173129915
      ],
      [
       -74.00690967854602,
       40.666132685909034
      ],
      [
       -74.0068971720367,
       40.666133629800896
      ],
      [
       -74.00688463337991,
       40.66613297857554
      ],
      [
       -74.00684990953975,
       40.66620481646161
      ],
      [
       -74.00689986821116,
       40.66621917196062
      ],
      [
       -74.00675322002554,
       40.666534813010976
      ],
      [
       -74.00630745183966,
       40.66749425113162
      ],
      [
       -74.006257516092,
       40.66759470124978
      ],
      [
       -74.00604596458894,
       40.66805324297803
      ],
      [
       -74.00531907552742,
       40.66955428536658
      ],
      [
       -74.00475388692328,
       40.670721359447796
      ],
      [
       -74.00543926529352,
       40.67092146823863
      ],
      [
       -74.00602851417166,
       40.669784745776724
      ],
      [
       -74.00661572118399,
       40.6686231562722
      ],
      [
       -74.00680345938899,
       40.668591375165896
      ],
      [
       -74.00754821618388,
       40.66705174573373
      ],
      [
       -74.00779653349625,
       40.667159770777396
      ],
      [
       -74.00708724287807,
       40.66859135803333
      ],
      [
       -74.00985411855626,
       40.668523628335585
      ],
      [
       -74.01154017543331,
       40.665085919756834
      ],
      [
       -74.0157487288266,
       40.664568336291815
      ],
      [
       -74.01690267361082,
       40.66484660284165
      ],
      [
       -74.01744446050996,
       40.66526799635196
      ],
      [
       -74.0178871914939,
       40.66585046628554
      ],
      [
       -74.01857605010876,
       40.67039241387013
      ],
      [
       -74.01876336878675,
       40.671075874494576
      ],
      [
       -74.01933946871777,
       40.671624948422796
      ],
      [
       -74.01888283363333,
       40.6716016662056
      ],
      [
       -74.01751037086694,
       40.67103453098431
      ],
      [
       -74.01668768368874,
       40.665437066767076
      ],
      [
       -74.01657536097838,
       40.665038537840054
      ],
      [
       -74.01648665554497,
       40.664930508953994
      ],
      [
       -74.01602551776011,
       40.664863048788284
      ],
      [
       -74.0159369853455,
       40.66547079172164
      ],
      [
       -74.01227967872792,
       40.66573241415904
      ],
      [
       -74.01087664028975,
       40.668601615763706
      ],
      [
       -74.01035683667315,
       40.66864283538869
      ],
      [
       -74.01033845947936,
       40.6690781954482
      ],
      [
       -74.01055980644766,
       40.66919052506985
      ],
      [
       -74.01091024340414,
       40.66919049236966
      ],
      [
       -74.01087343978188,
       40.66971011555857
      ],
      [
       -74.01154288031569,
       40.66978434275048
      ],
      [
       -74.01162173117001,
       40.67011434644752
      ],
      [
       -74.01151443463284,
       40.670407022879004
      ],
      [
       -74.01162527521356,
       40.670581028276025
      ],
      [
       -74.0140621982817,
       40.66970583843664
      ],
      [
       -74.01424926931875,
       40.6697286047373
      ],
      [
       -74.01424180477504,
       40.669808370538995
      ],
      [
       -74.0117535050969,
       40.67065775707593
      ],
      [
       -74.01177191196575,
       40.67070305391286
      ],
      [
       -74.01179735456277,
       40.67074633145567
      ],
      [
       -74.01182946198804,
       40.67078695878561
      ],
      [
       -74.0118677661764,
       40.670824343618776
      ],
      [
       -74.01191170872062,
       40.67085794094093
      ],
      [
       -74.01196290729479,
       40.67088844629345
      ],
      [
       -74.01201873922635,
       40.67091380529647
      ],
      [
       -74.01207831743132,
       40.670933615032126
      ],
      [
       -74.01214069529996,
       40.670947560752
      ],
      [
       -74.0122048817377,
       40.67095542087838
      ],
      [
       -74.01226985691291,
       40.670957070524985
      ],
      [
       -74.01233458846134,
       40.670952483481216
      ],
      [
       -74.01239804788985,
       40.670941732628734
      ],
      [
       -74.01245922691852,
       40.67092498878342
      ],
      [
       -74.01251715350163,
       40.670902517981155
      ],
      [
       -74.01257090727259,
       40.67087467725063
      ],
      [
       -74.01261963416783,
       40.67084190894061
      ],
      [
       -74.01309824698103,
       40.67105495991243
      ],
      [
       -74.01355198671443,
       40.67125693437729
      ],
      [
       -74.01359839287177,
       40.671226917313106
      ],
      [
       -74.01365024645956,
       40.67120261272297
      ],
      [
       -74.01370634525983,
       40.671184584102896
      ],
      [
       -74.01376281091312,
       40.67117359468632
      ],
      [
       -74.01382077477413,
       40.67116897108869
      ],
      [
       -74.01387900570525,
       40.67117081151403
      ],
      [
       -74.01393626689658,
       40.67117907687215
      ],
      [
       -74.01399134213443,
       40.671193591608954
      ],
      [
       -74.01427407257722,
       40.67137929867941
      ],
      [
       -74.01508006471087,
       40.67068567379825
      ],
      [
       -74.0151998057007,
       40.67075402766451
      ],
      [
       -74.0143692064823,
       40.671454796156276
      ],
      [
       -74.01412302856022,
       40.671669334137505
      ],
      [
       -74.01387273763245,
       40.671880761760626
      ],
      [
       -74.01423289452782,
       40.672130000513214
      ],
      [
       -74.01559644489554,
       40.6709704775175
      ],
      [
       -74.01568625497515,
       40.671038834929
      ],
      [
       -74.01428722178991,
       40.67224118300007
      ],
      [
       -74.01422923190441,
       40.67220720499047
      ],
      [
       -74.01297587792189,
       40.673327918721135
      ],
      [
       -74.01336378218144,
       40.673591536934566
      ],
      [
       -74.01395109365245,
       40.67311158819353
      ],
      [
       -74.01511918663962,
       40.6721569959693
      ],
      [
       -74.01632099922307,
       40.67290826956389
      ],
      [
       -74.01457946720956,
       40.674414017071776
      ],
      [
       -74.01496392184575,
       40.67467763029439
      ],
      [
       -74.0154395663873,
       40.67427288215883
      ],
      [
       -74.01670765236585,
       40.673193774421925
      ],
      [
       -74.01816839280801,
       40.67193924110386
      ],
      [
       -74.0188009477692,
       40.67225076484888
      ],
      [
       -74.01727138470127,
       40.673608645805714
      ],
      [
       -74.01729282519574,
       40.673628215024806
      ],
      [
       -74.01775247096367,
       40.67404772289265
      ],
      [
       -74.01779805190316,
       40.67401589897339
      ],
      [
       -74.01781515223438,
       40.67403035799538
      ],
      [
       -74.01789301471663,
       40.67396526455034
      ],
      [
       -74.0178797161499,
       40.67395658985109
      ],
      [
       -74.01794428080245,
       40.67388282049709
      ],
      [
       -74.01798111223526,
       40.67389963805479
      ],
      [
       -74.0180107732054,
       40.67391318105255
      ],
      [
       -74.01795760572415,
       40.67398694866529
      ],
      [
       -74.0179234101333,
       40.673975384193504
      ],
      [
       -74.01783604921188,
       40.67404047913194
      ],
      [
       -74.01785694945181,
       40.67405783059587
      ],
      [
       -74.01780187203205,
       40.674095441412575
      ],
      [
       -74.0181153639023,
       40.67434270168247
      ],
      [
       -74.01813640520828,
       40.674358645475365
      ],
      [
       -74.0181536139001,
       40.67437706242554
      ],
      [
       -74.0181664970957,
       40.67439742504826
      ],
      [
       -74.01817468579968,
       40.67441915013174
      ],
      [
       -74.01817794547215,
       40.674441615441026
      ],
      [
       -74.01817618274673,
       40.67446417753945
      ],
      [
       -74.01804519537194,
       40.67476791076828
      ],
      [
       -74.01802399440481,
       40.67485275836333
      ],
      [
       -74.01803004073724,
       40.67492410782776
      ],
      [
       -74.01803574975763,
       40.67495881684365
      ],
      [
       -74.01800916427283,
       40.6749935314212
      ],
      [
       -74.01801676669672,
       40.67500943950532
      ],
      [
       -74.01792370591394,
       40.67507598132654
      ],
      [
       -74.01798640472799,
       40.67512514362125
      ],
      [
       -74.01783447572687,
       40.675258223014445
      ],
      [
       -74.01814986189123,
       40.675467879415066
      ],
      [
       -74.01819544347494,
       40.675440393140065
      ],
      [
       -74.01822964241143,
       40.67546208190104
      ],
      [
       -74.01829802655334,
       40.67545917918156
      ],
      [
       -74.01841235821729,
       40.67536544943174
      ],
      [
       -74.0183195782651,
       40.67530281254545
      ],
      [
       -74.01826302409965,
       40.67535022318108
      ],
      [
       -74.0181707090551,
       40.675290905663445
      ],
      [
       -74.01838692796325,
       40.67509684652105
      ],
      [
       -74.01847522178701,
       40.67515319139717
      ],
      [
       -74.01842277826977,
       40.675208101334924
      ],
      [
       -74.01852163355454,
       40.67526871258786
      ],
      [
       -74.01875661352109,
       40.67505645403511
      ],
      [
       -74.01876748039157,
       40.675050365970144
      ],
      [
       -74.01877955344204,
       40.675045780630136
      ],
      [
       -74.01879247780126,
       40.67504283279499
      ],
      [
       -74.01880587357515,
       40.675041609112284
      ],
      [
       -74.01881934701309,
       40.67504214555053
      ],
      [
       -74.01883250208174,
       40.67504442634185
      ],
      [
       -74.01884495210564,
       40.675048384445496
      ],
      [
       -74.01885633113301,
       40.67505390351836
      ],
      [
       -74.0188663046924,
       40.675060821334704
      ],
      [
       -74.0188745796239,
       40.67506893455459
      ],
      [
       -74.01888091269623,
       40.67507800470073
      ],
      [
       -74.01888511775628,
       40.67508776516809
      ],
      [
       -74.01888707120082,
       40.6750979290605
      ],
      [
       -74.01888671560985,
       40.67510819762345
      ],
      [
       -74.01888406143448,
       40.675118269025724
      ],
      [
       -74.01841031333086,
       40.6755190609859
      ],
      [
       -74.01841814042452,
       40.6755381677055
      ],
      [
       -74.01842953733541,
       40.67555620342163
      ],
      [
       -74.0184442612652,
       40.675572783899284
      ],
      [
       -74.0184619985357,
       40.67558755590579
      ],
      [
       -74.0184823712713,
       40.675600204736135
      ],
      [
       -74.01853710727022,
       40.675768790499994
      ],
      [
       -74.0185348637046,
       40.675787338055336
      ],
      [
       -74.01852843521326,
       40.67580530956278
      ],
      [
       -74.01851801605162,
       40.675822161952226
      ],
      [
       -74.01850392106736,
       40.67583738597114
      ],
      [
       -74.0184865761866,
       40.67585052157342
      ],
      [
       -74.01846650554316,
       40.675861171821445
      ],
      [
       -74.01844431564008,
       40.675869014880945
      ],
      [
       -74.01842067702209,
       40.67587381374657
      ],
      [
       -74.0183963040124,
       40.675875423403795
      ],
      [
       -74.01801753445856,
       40.67588437755784
      ],
      [
       -74.0179741087094,
       40.67594882365621
      ],
      [
       -74.01793838683696,
       40.67601595591047
      ],
      [
       -74.01791065223304,
       40.676085241785735
      ],
      [
       -74.01789112493164,
       40.67615613166152
      ],
      [
       -74.01787995986277,
       40.676228063191694
      ],
      [
       -74.01787724562267,
       40.67630046576511
      ],
      [
       -74.01788300377014,
       40.676372765032234
      ],
      [
       -74.01789718865467,
       40.676444387461125
      ],
      [
       -74.01791968777765,
       40.67651476488723
      ],
      [
       -74.01797278645655,
       40.676512828695834
      ],
      [
       -74.0179768500939,
       40.6765679162062
      ],
      [
       -74.01910890308608,
       40.67654428188828
      ],
      [
       -74.01912142196919,
       40.67661558463831
      ],
      [
       -74.01976925613235,
       40.67661322491746
      ],
      [
       -74.01995197864677,
       40.67710301045017
      ],
      [
       -74.0190825738633,
       40.67713956404772
      ],
      [
       -74.01914183574374,
       40.67772313432796
      ],
      [
       -74.0191892731334,
       40.6777411827305
      ],
      [
       -74.01919098767968,
       40.67774327118004
      ],
      [
       -74.0192189273765,
       40.67777728854665
      ],
      [
       -74.01917743946899,
       40.677826949007155
      ],
      [
       -74.01908763812088,
       40.67783123639893
      ],
      [
       -74.0190825764446,
       40.6778314788135
      ],
      [
       -74.01906541502093,
       40.67785015211908
      ],
      [
       -74.01904108711268,
       40.67787662401794
      ],
      [
       -74.0190338738475,
       40.67787699846317
      ],
      [
       -74.01843040661606,
       40.677908321362466
      ],
      [
       -74.01842965849701,
       40.67792758482327
      ],
      [
       -74.01841103183176,
       40.67840712178119
      ],
      [
       -74.01859504220096,
       40.67839777362938
      ],
      [
       -74.0186253260616,
       40.67836958152584
      ],
      [
       -74.0186278707078,
       40.67836958111389
      ],
      [
       -74.01862981462033,
       40.678369580799156
      ],
      [
       -74.01864991332967,
       40.67838487583748
      ],
      [
       -74.01866235777157,
       40.67839434600328
      ],
      [
       -74.01895405840415,
       40.67838148630472
      ],
      [
       -74.01898322115356,
       40.67835244073796
      ],
      [
       -74.01898995247258,
       40.67835329318082
      ],
      [
       -74.01902137413651,
       40.67837720491493
      ],
      [
       -74.01947238897456,
       40.67835833705073
      ],
      [
       -74.01953856537543,
       40.67830195259375
      ],
      [
       -74.01966200306943,
       40.67838563895909
      ],
      [
       -74.01966312651504,
       40.67838820127078
      ],
      [
       -74.01955208101641,
       40.67848217760085
      ],
      [
       -74.01951841750095,
       40.67845912061598
      ],
      [
       -74.01942864377905,
       40.67840019839325
      ],
      [
       -74.01942574949804,
       40.67840028231071
      ],
      [
       -74.01936501470075,
       40.678402029978415
      ],
      [
       -74.01927942798388,
       40.67840449444375
      ],
      [
       -74.01927671763758,
       40.678406772436915
      ],
      [
       -74.0192748527343,
       40.6784083394684
      ],
      [
       -74.01924689963597,
       40.67843183337372
      ],
      [
       -74.01924241195326,
       40.678431834124325
      ],
      [
       -74.0192065036038,
       40.67840792437242
      ],
      [
       -74.01912079360895,
       40.678412561909646
      ],
      [
       -74.01906401917526,
       40.67841563457445
      ],
      [
       -74.01903261122402,
       40.67844297275554
      ],
      [
       -74.01903013778119,
       40.67844265854765
      ],
      [
       -74.01902587989507,
       40.6784421191425
      ],
      [
       -74.01899445934598,
       40.67841991686225
      ],
      [
       -74.01899029164363,
       40.67842001639152
      ],
      [
       -74.01898714122169,
       40.67842009213138
      ],
      [
       -74.01885085228989,
       40.67842335720715
      ],
      [
       -74.01884757078858,
       40.67842601741447
      ],
      [
       -74.0188243386943,
       40.67844485367624
      ],
      [
       -74.01881607949582,
       40.678451550104064
      ],
      [
       -74.01881159159171,
       40.678451550837906
      ],
      [
       -74.01878017201008,
       40.67843020222016
      ],
      [
       -74.01877503939659,
       40.678430320997286
      ],
      [
       -74.01871751760083,
       40.678431668747876
      ],
      [
       -74.01863319772814,
       40.678433642172855
      ],
      [
       -74.01863191295386,
       40.67843476230355
      ],
      [
       -74.0186017917925,
       40.678460980906024
      ],
      [
       -74.0185999818873,
       40.678460981198626
      ],
      [
       -74.01859505982537,
       40.678460981994206
      ],
      [
       -74.0185647616791,
       40.678439632466315
      ],
      [
       -74.0185105917507,
       40.67844051183524
      ],
      [
       -74.01840544611002,
       40.67844222006246
      ],
      [
       -74.01841786210217,
       40.678549551395044
      ],
      [
       -74.01827026139368,
       40.67855421845974
      ],
      [
       -74.01828314900898,
       40.678728289412284
      ],
      [
       -74.01834068826905,
       40.67872867226967
      ],
      [
       -74.01838313797539,
       40.67874482169829
      ],
      [
       -74.01857882788785,
       40.678983079472566
      ],
      [
       -74.01943955737208,
       40.678933293624425
      ],
      [
       -74.0194562003954,
       40.678932452374234
      ],
      [
       -74.0194727993366,
       40.678933700185425
      ],
      [
       -74.0194889048376,
       40.678937003277895
      ],
      [
       -74.01950408089836,
       40.67894227223196
      ],
      [
       -74.01951791667994,
       40.67894936440919
      ],
      [
       -74.01953003762645,
       40.678958087813655
      ],
      [
       -74.01954011560476,
       40.67896820628958
      ],
      [
       -74.01954787778766,
       40.678979445914415
      ],
      [
       -74.01955311403974,
       40.678991502414185
      ],
      [
       -74.01955568260608,
       40.67900404940077
      ],
      [
       -74.01955551395007,
       40.679016747207534
      ],
      [
       -74.01955261263596,
       40.679029252084796
      ],
      [
       -74.01928128102031,
       40.67964814059555
      ],
      [
       -74.0190683342972,
       40.67976074797666
      ],
      [
       -74.0189281398833,
       40.67984430561382
      ],
      [
       -74.01899105471423,
       40.67990499370397
      ],
      [
       -74.01772532572437,
       40.680661902673755
      ],
      [
       -74.01764735085476,
       40.68060189084181
      ],
      [
       -74.01757049494164,
       40.68065064812441
      ],
      [
       -74.01746928837116,
       40.680614731701105
      ],
      [
       -74.0168483693633,
       40.680985758987845
      ],
      [
       -74.01678833950196,
       40.68102196529258
      ],
      [
       -74.01520082279133,
       40.68197941942823
      ],
      [
       -74.01532059864759,
       40.68211072878072
      ],
      [
       -74.01508295187068,
       40.68225409881815
      ],
      [
       -74.01486782800738,
       40.68238321404747
      ],
      [
       -74.01282000398867,
       40.68362241649745
      ],
      [
       -74.01262428290782,
       40.68346869639188
      ],
      [
       -74.01212285893645,
       40.68296217785099
      ],
      [
       -74.01213481688791,
       40.682905928025285
      ],
      [
       -74.01410549647974,
       40.68171251937566
      ],
      [
       -74.01360863270283,
       40.68122194672833
      ],
      [
       -74.01387398777992,
       40.68100981331911
      ],
      [
       -74.01374206644405,
       40.68091770134309
      ],
      [
       -74.01301835422105,
       40.68041237401449
      ],
      [
       -74.01186281377171,
       40.68139847955079
      ],
      [
       -74.01060858082337,
       40.68246876026815
      ],
      [
       -74.00967108558883,
       40.6832687277152
      ],
      [
       -74.01008603947855,
       40.68365543104361
      ],
      [
       -74.0107731233938,
       40.68435861554109
      ],
      [
       -74.0117827220121,
       40.68375999549946
      ],
      [
       -74.0119325991106,
       40.68388774915516
      ],
      [
       -74.01092841268031,
       40.68449147254313
      ],
      [
       -74.00953293674748,
       40.68534164804189
      ],
      [
       -74.00860072436832,
       40.68590956465498
      ],
      [
       -74.00851294191318,
       40.68596254858389
      ],
      [
       -74.00842516151928,
       40.68601553244533
      ],
      [
       -74.00816414527888,
       40.68617471716172
      ],
      [
       -74.00798184065677,
       40.68627582209608
      ],
      [
       -74.0079344147698,
       40.686281942978795
      ],
      [
       -74.00788712164156,
       40.68624579479357
      ],
      [
       -74.00782695474197,
       40.6862406283319
      ],
      [
       -74.00776833635145,
       40.68624913667171
      ],
      [
       -74.007717074958,
       40.686264429018536
      ],
      [
       -74.00753083240606,
       40.68607448791715
      ],
      [
       -74.00717109749404,
       40.68635701039938
      ],
      [
       -74.00526767089325,
       40.68578380522975
      ],
      [
       -74.0049257780174,
       40.68568856689198
      ],
      [
       -74.00485241669628,
       40.68566813081085
      ],
      [
       -74.00501066696373,
       40.68534193382046
      ]
     ]
    ]
   }
  }
 ]
}